HAWK-A                  
1 43765U 18099H   26068.67628545  .00008617  00000+0  36104-3 0  9995
2 43765  97.4051 122.2425 0034260 275.5523  84.1807 15.23231043397949
STARLINK-2040           
1 47656U 21012AN  26068.22711523 -.00000336  00000+0  67919-6 0  9999
2 47656  53.1596  51.6846 0001395  87.6283 272.4877 15.29358641280226
